KOREASAT 5 (MUGUNGWHA 5)
1 29349U 06034A   26196.86455471 -.00000369  00000+0  00000+0 0  9991
2 29349   1.8572  82.6299 0001865  81.5354 193.8227  1.00269358 41601
DIRECTV 9S              
1 29494U 06043A   26196.89350152 -.00000125  00000+0  00000+0 0  9995
2 29494   2.4929  80.5558 0004918  32.0508  41.5847  1.00271783 51674
OPTUS D1                
1 29495U 06043B   26196.87226808 -.00000196  00000+0  00000+0 0  9992
2 29495   3.1067  79.3019 0003359  32.4007 287.9715  1.00269839 72403
BADR-4                  
1 29526U 06051A   26196.92027439  .00000144  00000+0  00000+0 0  9993
2 29526   2.0770  80.8050 0004764  31.4014 187.2943  1.00271656 51555
WILDBLUE-1              
1 29643U 06054A   26196.89150817 -.00000061  00000+0  00000+0 0  9998
2 29643   2.8751  80.1218 0001317  41.7131  21.6266  1.00271401 54084
SKYNET 5A               
1 30794U 07007B   26196.86031840 -.00000284  00000+0  00000+0 0  9994
2 30794   5.3705  73.3896 0003695  46.1728 219.0450  1.00269114 70981
ANIK F3                 
1 31102U 07009A   26196.88994816 -.00000012  00000+0  00000+0 0  9992
2 31102   1.2698  83.5047 0002463  30.4514  21.4263  1.00271274 46859
ASTRA 1L                
1 31306U 07016A   26196.83734727 -.00000196  00000+0  00000+0 0  9997
2 31306   1.3939  81.3422 0005234  34.8909  94.3797  1.00271075 45277
GALAXY 17 (G-17)        
1 31307U 07016B   26196.89662153 -.00000218  00000+0  00000+0 0  9992
2 31307   3.0422  79.5364 0003574  34.4922  57.4669  1.00271643 70091
INTELSAT 11 (IS-11)     
1 32253U 07044B   26196.91334892 -.00000184  00000+0  00000+0 0  9995
2 32253   3.6382  78.3202 0004226 100.3877  83.2951  0.99052408 68730
WGS F1 (USA 195)        
1 32258U 07046A   26196.48794642 -.00000277  00000+0  00000+0 0  9990
2 32258   0.0161  62.8125 0000351 184.9075 178.7651  1.00268219 52615
SKYNET 5B               
1 32294U 07056B   26196.91845438  .00000127  00000+0  00000+0 0  9992
2 32294   5.3224  73.1589 0003727  44.5124 171.8467  1.00275022 68489
ASTRA 4A                
1 32299U 07057A   26196.84315396  .00000022  00000+0  00000+0 0  9999
2 32299   0.0394 286.3593 0002322 193.8728 121.7725  1.00271521 51938
HORIZONS-2              
1 32388U 07063B   26196.94145514 -.00000265  00000+0  00000+0 0  9999
2 32388   2.6743  80.2713 0003568  20.8088  97.7995  1.00269034 68103
THURAYA-3               
1 32404U 08001A   26196.73794743 -.00000003  00000+0  00000+0 0  9992
2 32404   6.0368  35.8233 0002140  77.6670 149.4404  1.00272007 67774
THOR 5                  
1 32487U 08006A   26196.91334892 -.00000020  00000+0  00000+0 0  9992
2 32487   0.0302 228.9509 0002367 254.3592 138.4842  1.00271529 67600
AMC-14                  
1 32708U 08011A   26196.50155855 -.00000191  00000+0  00000+0 0  9998
2 32708  24.0428  20.1781 0039604   8.4392 164.2123  1.00420371 68459
DIRECTV 11              
1 32729U 08013A   26196.51016899 -.00000136  00000+0  00000+0 0  9997
2 32729   0.0353 223.2222 0000080 348.5472 166.0602  1.00271599 45871
ICO G1                  
1 32763U 08016A   26196.60987404 -.00000184  00000+0  00000+0 0  9990
2 32763   5.5256  36.0310 0002356  66.6258 317.4954  1.00272347 66830
VINASAT-1               
1 32767U 08018A   26196.93960115 -.00000339  00000+0  00000+0 0  9994
2 32767   0.0496 267.7660 0001552 225.1338 271.0663  1.00270247 66872
STAR ONE C2             
1 32768U 08018B   26196.90060821 -.00000288  00000+0  00000+0 0  9990
2 32768   1.3117  82.1887 0002774  49.2884  61.4735  1.00270623 66942
AMOS-3                  
1 32794U 08022A   26196.92556108 -.00000011  00000+0  00000+0 0  9998
2 32794   0.5274  85.7952 0003039  84.3153 157.6805  1.00488484 82627
GALAXY 18 (G-18)        
1 32951U 08024A   26196.88916816  .00000015  00000+0  00000+0 0  9999
2 32951   0.0149  64.7677 0002889  63.3023   2.7519  1.00271674 46144
ZHONGXING-9             
1 33051U 08028A   26196.93180110 -.00000259  00000+0  00000+0 0  9992
2 33051   0.8399  84.9394 0003239  28.4174 248.2121  1.00269063 66327
SKYNET 5C               
1 33055U 08030A   26196.90996891 -.00000152  00000+0  00000+0 0  9999
2 33055   3.8604  76.6981 0004132  46.5439 120.2976  1.00272280 66244
TURKSAT 3A              
1 33056U 08030B   26196.92183439  .00000136  00000+0  00000+0 0  9999
2 33056   0.0368  75.0040 0004900  20.7493 211.8368  1.00270674 52643
ECHOSTAR 11             
1 33207U 08035A   26196.89176817 -.00000069  00000+0  00000+0 0  9996
2 33207   1.0775  83.8473 0002216  20.6491  40.4619  1.00270928 51507
SUPERBIRD-C2            
1 33274U 08038A   26196.94038115 -.00000318  00000+0  00000+0 0  9994
2 33274   2.4332  80.9040 0006183  38.1974 289.2114  1.00272514106013
INMARSAT 4-F3           
1 33278U 08039A   26196.68021502 -.00000152  00000+0  00000+0 0  9998
2 33278   4.3165  31.6911 0002739  88.7708 319.9468  1.00271599 46839
NIMIQ 4                 
1 33373U 08044A   26196.89722819 -.00000231  00000+0  00000+0 0  9990
2 33373   0.0125  28.1117 0001933  71.9604  74.6674  1.00271613 65277
GALAXY 19 (G-19)        
1 33376U 08045A   26196.89428152 -.00000149  00000+0  00000+0 0  9995
2 33376   0.0554 246.8504 0002354 238.0585  33.7689  1.00270984 65190
ASTRA 1M                
1 33436U 08057A   26196.91732770  .00000110  00000+0  00000+0 0  9999
2 33436   0.3684  82.7777 0004467  41.6678 158.9197  1.00269854 46020
