OBJECT_NAME,OBJECT_ID,EPOCH,MEAN_MOTION,ECCENTRICITY,INCLINATION,RA_OF_ASC_NODE,ARG_OF_PERICENTER,MEAN_ANOMALY,EPHEMERIS_TYPE,CLASSIFICATION_TYPE,NORAD_CAT_ID,ELEMENT_SET_NO,REV_AT_EPOCH,BSTAR,MEAN_MOTION_DOT,MEAN_MOTION_DDOT
KOREASAT 5 (MUGUNGWHA 5),2006-034A,2026-07-15T20:44:57.526944,1.00269358,.00018656,1.8572,82.6299,81.5354,193.8227,0,U,29349,999,4160,0,-.369E-5,0
DIRECTV 9S,2006-043A,2026-07-15T21:26:38.531328,1.00271783,.00049182,2.4929,80.5558,32.0508,41.5847,0,U,29494,999,5167,0,-.125E-5,0
OPTUS D1,2006-043B,2026-07-15T20:56:03.962112,1.00269839,.00033591,3.1067,79.3019,32.4007,287.9715,0,U,29495,999,7240,0,-.196E-5,0
BADR-4,2006-051A,2026-07-15T22:05:11.707296,1.00271656,.00047648,2.0770,80.8050,31.4014,187.2943,0,U,29526,999,5155,0,.144E-5,0
WILDBLUE-1,2006-054A,2026-07-15T21:23:46.305888,1.00271401,.00013175,2.8751,80.1218,41.7131,21.6266,0,U,29643,999,5408,0,-.61E-6,0
SKYNET 5A,2007-007B,2026-07-15T20:38:51.509760,1.00269114,.00036958,5.3705,73.3896,46.1728,219.0450,0,U,30794,999,7098,0,-.284E-5,0
ANIK F3,2007-009A,2026-07-15T21:21:31.521024,1.00271274,.00024635,1.2698,83.5047,30.4514,21.4263,0,U,31102,999,4685,0,-.12E-6,0
ASTRA 1L,2007-016A,2026-07-15T20:05:46.804128,1.00271075,.00052345,1.3939,81.3422,34.8909,94.3797,0,U,31306,999,4527,0,-.196E-5,0
GALAXY 17 (G-17),2007-016B,2026-07-15T21:31:08.100192,1.00271643,.00035744,3.0422,79.5364,34.4922,57.4669,0,U,31307,999,7009,0,-.218E-5,0
INTELSAT 11 (IS-11),2007-044B,2026-07-15T21:55:13.346688,0.99052408,.00042262,3.6382,78.3202,100.3877,83.2951,0,U,32253,999,6873,0,-.184E-5,0
WGS F1 (USA 195),2007-046A,2026-07-15T11:42:38.570688,1.00268219,.00003518,0.0161,62.8125,184.9075,178.7651,0,U,32258,999,5261,0,-.277E-5,0
SKYNET 5B,2007-056B,2026-07-15T22:02:34.458432,1.00275022,.00037276,5.3224,73.1589,44.5124,171.8467,0,U,32294,999,6848,0,.127E-5,0
ASTRA 4A,2007-057A,2026-07-15T20:14:08.502144,1.00271521,.00023229,0.0394,286.3593,193.8728,121.7725,0,U,32299,999,5193,0,.22E-6,0
HORIZONS-2,2007-063B,2026-07-15T22:35:41.724096,1.00269034,.00035689,2.6743,80.2713,20.8088,97.7995,0,U,32388,999,6810,0,-.265E-5,0
THURAYA-3,2008-001A,2026-07-15T17:42:38.657952,1.00272007,.00021404,6.0368,35.8233,77.6670,149.4404,0,U,32404,999,6777,0,-.3E-7,0
THOR 5,2008-006A,2026-07-15T21:55:13.346688,1.00271529,.00023678,0.0302,228.9509,254.3592,138.4842,0,U,32487,999,6760,0,-.2E-6,0
AMC-14,2008-011A,2026-07-15T12:02:14.658720,1.00420371,.00396043,24.0428,20.1781,8.4392,164.2123,0,U,32708,999,6845,0,-.191E-5,0
DIRECTV 11,2008-013A,2026-07-15T12:14:38.600736,1.00271599,.00000802,0.0353,223.2222,348.5472,166.0602,0,U,32729,999,4587,0,-.136E-5,0
ICO G1,2008-016A,2026-07-15T14:38:13.117056,1.00272347,.00023565,5.5256,36.0310,66.6258,317.4954,0,U,32763,999,6683,0,-.184E-5,0
VINASAT-1,2008-018A,2026-07-15T22:33:01.539360,1.00270247,.00015523,0.0496,267.7660,225.1338,271.0663,0,U,32767,999,6687,0,-.339E-5,0
STAR ONE C2,2008-018B,2026-07-15T21:36:52.549344,1.00270623,.00027749,1.3117,82.1887,49.2884,61.4735,0,U,32768,999,6694,0,-.288E-5,0
AMOS-3,2008-022A,2026-07-15T22:12:48.477312,1.00488484,.00030398,0.5274,85.7952,84.3153,157.6805,0,U,32794,999,8262,0,-.11E-6,0
GALAXY 18 (G-18),2008-024A,2026-07-15T21:20:24.129024,1.00271674,.00028899,0.0149,64.7677,63.3023,2.7519,0,U,32951,999,4614,0,.15E-6,0
ZHONGXING-9,2008-028A,2026-07-15T22:21:47.615040,1.00269063,.00032394,0.8399,84.9394,28.4174,248.2121,0,U,33051,999,6632,0,-.259E-5,0
SKYNET 5C,2008-030A,2026-07-15T21:50:21.313824,1.00272280,.0004132,3.8604,76.6981,46.5439,120.2976,0,U,33055,999,6624,0,-.152E-5,0
TURKSAT 3A,2008-030B,2026-07-15T22:07:26.491296,1.00270674,.00049006,0.0368,75.0040,20.7493,211.8368,0,U,33056,999,5264,0,.136E-5,0
ECHOSTAR 11,2008-035A,2026-07-15T21:24:08.769888,1.00270928,.00022161,1.0775,83.8473,20.6491,40.4619,0,U,33207,999,5150,0,-.69E-6,0
SUPERBIRD-C2,2008-038A,2026-07-15T22:34:08.931360,1.00272514,.00061832,2.4332,80.9040,38.1974,289.2114,0,U,33274,999,10601,0,-.318E-5,0
INMARSAT 4-F3,2008-039A,2026-07-15T16:19:30.577728,1.00271599,.0002739,4.3165,31.6911,88.7708,319.9468,0,U,33278,999,4683,0,-.152E-5,0
NIMIQ 4,2008-044A,2026-07-15T21:32:00.515616,1.00271613,.00019339,0.0125,28.1117,71.9604,74.6674,0,U,33373,999,6527,0,-.231E-5,0
GALAXY 19 (G-19),2008-045A,2026-07-15T21:27:45.923328,1.00270984,.00023549,0.0554,246.8504,238.0585,33.7689,0,U,33376,999,6519,0,-.149E-5,0
ASTRA 1M,2008-057A,2026-07-15T22:00:57.113280,1.00269854,.00044673,0.3684,82.7777,41.6678,158.9197,0,U,33436,999,4602,0,.11E-5,0
